{
  "type": "FeatureCollection",
  "features": [
    {
      "type": "Feature",
      "properties": {
        "norad_id": 66378,
        "name": "SHIYAN-32 02",
        "group": "last-30-days",
        "lat": -30.296381767988457,
        "lon": -165.09369832547569,
        "alt_km": 432.29791909963296,
        "timestamp": "2025-12-03T15:48:01.918432+00:00",
        "meta_object_name": "SHIYAN-32 02",
        "meta_object_id": "2025-255C",
        "meta_epoch": "2025-12-03T06:38:56.541120",
        "meta_mean_motion": 15.44097281,
        "meta_eccentricity": 0.001243,
        "meta_inclination": 52.9969,
        "meta_ra_of_asc_node": 222.8675,
        "meta_arg_of_pericenter": 10.0538,
        "meta_mean_anomaly": 350.0713,
        "meta_ephemeris_type": 0,
        "meta_classification_type": "U",
        "meta_norad_cat_id": 66378,
        "meta_element_set_no": 999,
        "meta_rev_at_epoch": 375,
        "meta_bstar": 0.0015910386,
        "meta_mean_motion_dot": 0.00074401,
        "meta_mean_motion_ddot": 0,
        "tle_line1": "1 66378U 25255C   25337.27704330  .00074401  00000+0  15910-2 0  9998",
        "tle_line2": "2 66378  52.9969 222.8675 0012430  10.0538 350.0713 15.44097281  3756"
      },
      "geometry": {
        "type": "Point",
        "coordinates": [
          -165.09369832547569,
          -30.296381767988457
        ]
      }
    },
    {
      "type": "Feature",
      "properties": {
        "norad_id": 66379,
        "name": "SHIYAN-32 03",
        "group": "last-30-days",
        "lat": -50.986220822772026,
        "lon": 109.74700254297895,
        "alt_km": 448.04734078318234,
        "timestamp": "2025-12-03T15:48:01.918443+00:00",
        "meta_object_name": "SHIYAN-32 03",
        "meta_object_id": "2025-255D",
        "meta_epoch": "2025-12-03T06:55:02.765280",
        "meta_mean_motion": 15.42627557,
        "meta_eccentricity": 0.00154679,
        "meta_inclination": 52.9973,
        "meta_ra_of_asc_node": 222.9374,
        "meta_arg_of_pericenter": 13.8345,
        "meta_mean_anomaly": 346.308,
        "meta_ephemeris_type": 0,
        "meta_classification_type": "U",
        "meta_norad_cat_id": 66379,
        "meta_element_set_no": 999,
        "meta_rev_at_epoch": 377,
        "meta_bstar": 0.00052575283,
        "meta_mean_motion_dot": 0.00022987,
        "meta_mean_motion_ddot": 0,
        "tle_line1": "1 66379U 25255D   25337.28822645  .00022987  00000+0  52575-3 0  9991",
        "tle_line2": "2 66379  52.9973 222.9374 0015467  13.8345 346.3080 15.42627557  3779"
      },
      "geometry": {
        "type": "Point",
        "coordinates": [
          109.74700254297895,
          -50.986220822772026
        ]
      }
    },
    {
      "type": "Feature",
      "properties": {
        "norad_id": 66380,
        "name": "STARLINK-35139",
        "group": "last-30-days",
        "lat": -14.916783687021312,
        "lon": 138.96746519294464,
        "alt_km": 450.15029634550956,
        "timestamp": "2025-12-03T15:48:01.918453+00:00",
        "meta_object_name": "STARLINK-35139",
        "meta_object_id": "2025-257A",
        "meta_epoch": "2025-12-03T08:00:01.999872",
        "meta_mean_motion": 15.39556256,
        "meta_eccentricity": 0.00010229,
        "meta_inclination": 53.1588,
        "meta_ra_of_asc_node": 308.9782,
        "meta_arg_of_pericenter": 80.9925,
        "meta_mean_anomaly": 115.3359,
        "meta_ephemeris_type": 0,
        "meta_classification_type": "U",
        "meta_norad_cat_id": 66380,
        "meta_element_set_no": 999,
        "meta_rev_at_epoch": 492,
        "meta_bstar": 0.0025825358,
        "meta_mean_motion_dot": 0.00104102,
        "meta_mean_motion_ddot": 0,
        "tle_line1": "1 66380U 25257A   25337.33335648  .00104102  00000+0  25825-2 0  9990",
        "tle_line2": "2 66380  53.1588 308.9782 0001022  80.9925 115.3359 15.39556256  4929"
      },
      "geometry": {
        "type": "Point",
        "coordinates": [
          138.96746519294464,
          -14.916783687021312
        ]
      }
    },
    {
      "type": "Feature",
      "properties": {
        "norad_id": 66381,
        "name": "STARLINK-35158",
        "group": "last-30-days",
        "lat": -16.347793502477465,
        "lon": 140.14647047011735,
        "alt_km": 450.4352865981364,
        "timestamp": "2025-12-03T15:48:01.918462+00:00",
        "meta_object_name": "STARLINK-35158",
        "meta_object_id": "2025-257B",
        "meta_epoch": "2025-12-03T08:00:01.999872",
        "meta_mean_motion": 15.39552986,
        "meta_eccentricity": 0.00012995,
        "meta_inclination": 53.1587,
        "meta_ra_of_asc_node": 308.9738,
        "meta_arg_of_pericenter": 81.5281,
        "meta_mean_anomaly": 116.6385,
        "meta_ephemeris_type": 0,
        "meta_classification_type": "U",
        "meta_norad_cat_id": 66381,
        "meta_element_set_no": 999,
        "meta_rev_at_epoch": 498,
        "meta_bstar": 0.0021311253,
        "meta_mean_motion_dot": 0.00085617,
        "meta_mean_motion_ddot": 0,
        "tle_line1": "1 66381U 25257B   25337.33335648  .00085617  00000+0  21311-2 0  9996",
        "tle_line2": "2 66381  53.1587 308.9738 0001299  81.5281 116.6385 15.39552986  4983"
      },
      "geometry": {
        "type": "Point",
        "coordinates": [
          140.14647047011735,
          -16.347793502477465
        ]
      }
    },
    {
      "type": "Feature",
      "properties": {
        "norad_id": 66382,
        "name": "STARLINK-35639",
        "group": "last-30-days",
        "lat": -34.09525192923433,
        "lon": 157.89208686105488,
        "alt_km": 451.9843898831323,
        "timestamp": "2025-12-03T15:48:01.918471+00:00",
        "meta_object_name": "STARLINK-35639",
        "meta_object_id": "2025-257C",
        "meta_epoch": "2025-12-03T08:00:01.999872",
        "meta_mean_motion": 15.39542741,
        "meta_eccentricity": 0.00012879,
        "meta_inclination": 53.159,
        "meta_ra_of_asc_node": 308.9248,
        "meta_arg_of_pericenter": 85.8077,
        "meta_mean_anomaly": 136.2666,
        "meta_ephemeris_type": 0,
        "meta_classification_type": "U",
        "meta_norad_cat_id": 66382,
        "meta_element_set_no": 999,
        "meta_rev_at_epoch": 498,
        "meta_bstar": 0.0027057376,
        "meta_mean_motion_dot": 0.00109111,
        "meta_mean_motion_ddot": 0,
        "tle_line1": "1 66382U 25257C   25337.33335648  .00109111  00000+0  27057-2 0  9996",
        "tle_line2": "2 66382  53.1590 308.9248 0001287  85.8077 136.2666 15.39542741  4989"
      },
      "geometry": {
        "type": "Point",
        "coordinates": [
          157.89208686105488,
          -34.09525192923433
        ]
      }
    },
    {
      "type": "Feature",
      "properties": {
        "norad_id": 66383,
        "name": "STARLINK-35690",
        "group": "last-30-days",
        "lat": -48.851151380103715,
        "lon": -173.57009739211637,
        "alt_km": 452.9990184159906,
        "timestamp": "2025-12-03T15:48:01.918480+00:00",
        "meta_object_name": "STARLINK-35690",
        "meta_object_id": "2025-257D",
        "meta_epoch": "2025-12-03T08:00:01.999872",
        "meta_mean_motion": 15.40253069,
        "meta_eccentricity": 0.00015752,
        "meta_inclination": 53.1594,
        "meta_ra_of_asc_node": 308.8745,
        "meta_arg_of_pericenter": 87.962,
        "meta_mean_anomaly": 159.5062,
        "meta_ephemeris_type": 0,
        "meta_classification_type": "U",
        "meta_norad_cat_id": 66383,
        "meta_element_set_no": 999,
        "meta_rev_at_epoch": 498,
        "meta_bstar": -0.024352335,
        "meta_mean_motion_dot": -0.00913536,
        "meta_mean_motion_ddot": 0,
        "tle_line1": "1 66383U 25257D   25337.33335648 -.00913536  00000+0 -24352-1 0  9997",
        "tle_line2": "2 66383  53.1594 308.8745 0001575  87.9620 159.5062 15.40253069  4984"
      },
      "geometry": {
        "type": "Point",
        "coordinates": [
          -173.57009739211637,
          -48.851151380103715
        ]
      }
    },
    {
      "type": "Feature",
      "properties": {
        "norad_id": 66384,
        "name": "STARLINK-35662",
        "group": "last-30-days",
        "lat": -49.573694261948,
        "lon": -171.00522325866348,
        "alt_km": 453.05509749592693,
        "timestamp": "2025-12-03T15:48:01.918491+00:00",
        "meta_object_name": "STARLINK-35662",
        "meta_object_id": "2025-257E",
        "meta_epoch": "2025-12-03T08:00:01.999872",
        "meta_mean_motion": 15.40241316,
        "meta_eccentricity": 0.00015616,
        "meta_inclination": 53.1595,
        "meta_ra_of_asc_node": 308.8716,
        "meta_arg_of_pericenter": 80.7636,
        "meta_mean_anomaly": 168.5442,
        "meta_ephemeris_type": 0,
        "meta_classification_type": "U",
        "meta_norad_cat_id": 66384,
        "meta_element_set_no": 999,
        "meta_rev_at_epoch": 498,
        "meta_bstar": -0.023943032,
        "meta_mean_motion_dot": -0.00899067,
        "meta_mean_motion_ddot": 0,
        "tle_line1": "1 66384U 25257E   25337.33335648 -.00899067  00000+0 -23943-1 0  9995",
        "tle_line2": "2 66384  53.1595 308.8716 0001561  80.7636 168.5442 15.40241316  4981"
      },
      "geometry": {
        "type": "Point",
        "coordinates": [
          -171.00522325866348,
          -49.573694261948
        ]
      }
    }
  ]
}